[{"OBJECT_NAME":"SHIYAN-6 03 (SY-6 03)","OBJECT_ID":"2021-028A","EPOCH":"2026-03-09T22:49:05.080800","MEAN_MOTION":13.77596335,"ECCENTRICITY":0.0046038,"INCLINATION":99.5345,"RA_OF_ASC_NODE":82.5401,"ARG_OF_PERICENTER":347.8227,"MEAN_ANOMALY":12.1807,"EPHEMERIS_TYPE":0,"CLASSIFICATION_TYPE":"U","NORAD_CAT_ID":48157,"ELEMENT_SET_NO":999,"REV_AT_EPOCH":24584,"BSTAR":1.7068221e-5,"MEAN_MOTION_DOT":-2.9e-7,"MEAN_MOTION_DDOT":0},{"OBJECT_NAME":"COSMOS 951","OBJECT_ID":"1977-087A","EPOCH":"2026-03-09T22:58:16.953888","MEAN_MOTION":13.74335263,"ECCENTRICITY":0.00328011,"INCLINATION":82.9655,"RA_OF_ASC_NODE":245.4233,"ARG_OF_PERICENTER":290.4874,"MEAN_ANOMALY":182.5999,"EPHEMERIS_TYPE":0,"CLASSIFICATION_TYPE":"U","NORAD_CAT_ID":10352,"ELEMENT_SET_NO":999,"REV_AT_EPOCH":43085,"BSTAR":5.613285e-5,"MEAN_MOTION_DOT":6.8e-7,"MEAN_MOTION_DDOT":0}]
